# From MPC106342
C/1995 O1 (Hale-Bopp),e,88.9918,283.3572,130.5861,179.7693,0.0004089,0.99493781,0.0000,03/29.6985/1997,2000,g -2.0,4.0
# From NK 1615
P/1996 R2 (Lagerkvist),e,2.6003,40.0382,333.2992,3.774879,0.1343846,0.31395200,73.1646,08/09.0/2020,2000,g 11.5,4.0
# From MPC 30063
P/1997 B1 (Kobayashi),e,12.3398,328.8871,183.3743,8.564132,0.0393259,0.76006161,336.5291,08/09.0/2020,2000,g 15.0,2.0
# From MPC 75703
P/1998 VS24 (LINEAR),e,5.0248,159.0303,244.7023,4.530145,0.1022200,0.24184693,95.4758,08/09.0/2020,2000,g 13.0,2.0
# From NK 731
P/1999 RO28 (LONEOS),e,7.5664,137.8828,231.2720,3.426723,0.1553766,0.67198583,63.6944,08/09.0/2020,2000,g 20.0,2.0
# From MPC 75704
P/1999 XN120 (Catalina),e,5.0297,285.2960,161.9267,4.178992,0.1153710,0.21042982,133.2480,08/09.0/2020,2000,g 13.5,2.0
# From NK 744
P/2000 R2 (LINEAR),e,11.6839,160.2978,176.5019,3.465659,0.1527655,0.53153912,63.9511,08/09.0/2020,2000,g 18.0,4.0
# From MPC 43019
P/2001 H5 (NEAT),e,8.3677,328.6861,224.8759,6.098324,0.0654468,0.59881845,114.8652,08/09.0/2020,2000,g 12.0,4.0
# From MPC 75704
P/2001 Q6 (NEAT),e,56.8985,22.1156,42.9537,7.949354,0.0439750,0.82273455,302.8645,08/09.0/2020,2000,g 13.5,4.0
# From MPC 47727
P/2002 EJ57 (LINEAR),e,4.9759,330.3366,167.3429,6.473786,0.0598366,0.59303208,46.8106,08/09.0/2020,2000,g 12.5,4.0
# From MPC109588
P/2002 T5 (LINEAR),e,30.8530,123.0879,326.7817,7.003675,0.0531759,0.43777376,333.7435,08/09.0/2020,2000,g  8.0,4.0
# From MPC109588
P/2002 T6 (NEAT-LINEAR),e,10.8332,206.5535,219.5300,7.666034,0.0464353,0.55977897,292.8876,08/09.0/2020,2000,g 10.5,4.0
# From MPC 75007
C/2002 VQ94 (LINEAR),e,70.5453,34.9915,100.1858,186.3888,0.0003873,0.96332567,2.0556,08/09.0/2020,2000,g  9.5,2.0
# From MPC 50354
P/2003 F2 (NEAT),e,11.6052,359.0856,191.8706,6.486511,0.0596606,0.54206195,16.1596,08/09.0/2020,2000,g 16.5,2.0
# From MPC 50139
P/2003 QX29 (NEAT),e,11.3899,264.5974,37.3613,8.034973,0.0432740,0.47293721,281.1658,08/09.0/2020,2000,g  8.5,4.0
# From MPC105235
P/2003 T12 (SOHO),e,11.0162,174.5739,219.7716,2.586208,0.2369785,0.76962102,22.3098,08/09.0/2020,2000,g 17.0,4.0
# From MPC 82312
P/2004 A1 (LONEOS),e,10.5516,124.8475,21.4757,7.953489,0.0439408,0.30943246,256.3710,08/09.0/2020,2000,g  6.5,4.0
# From MPC 54558
P/2004 DO29 (Spacewatch-LINEAR),e,14.5315,147.3839,40.7480,7.281385,0.0501629,0.44144516,289.9903,08/09.0/2020,2000,g 13.5,2.0
# From MPC 54823
P/2004 FY140 (LINEAR),e,2.1348,326.7622,242.4814,4.900957,0.0908412,0.16880141,167.2574,08/09.0/2020,2000,g 12.5,2.0
# From MPEC 2020-N31
C/2004 Q1 (Tucker),e,56.2449,22.1051,32.8797,163.5214,0.0004713,0.98748350,0.0000,11/28.0299/2004,2000,g  9.5,4.0
# From MPC 53304
P/2004 R3 (LINEAR-NEAT),e,12.8209,305.4885,39.1697,4.785147,0.0941588,0.26098214,320.7173,08/09.0/2020,2000,g 14.5,4.0
# From MPC 55521
P/2004 V3 (Siding Spring),e,50.4283,356.1123,322.2762,7.145553,0.0516001,0.44629988,298.0883,08/09.0/2020,2000,g 11.5,4.0
# From MPC 75705
P/2004 V5 (LINEAR-Hill),e,19.3467,47.7614,87.8261,7.974110,0.0437704,0.44354035,247.6333,08/09.0/2020,2000,g  8.0,4.0
# From MPC 54164
P/2005 E1 (Tubbiolo),e,4.2637,335.5760,194.1569,7.035928,0.0528107,0.37523767,299.4186,08/09.0/2020,2000,g 10.0,4.0
# From MPC 54823
P/2005 GF8 (LONEOS),e,1.1937,314.8354,285.2793,5.872464,0.0692586,0.51840802,21.7408,08/09.0/2020,2000,g 11.5,4.0
# From MPC 79019
P/2005 J1 (McNaught),e,31.7684,268.7993,338.9528,3.569484,0.1461490,0.56999369,97.3673,08/09.0/2020,2000,g 16.5,4.0
# From MPC 74246
P/2005 L1 (McNaught),e,7.7386,138.2477,149.6741,3.975467,0.1243431,0.20933903,303.9812,08/09.0/2020,2000,g  9.5,4.0
# From MPC 75706
P/2005 S2 (Skiff),e,3.1357,161.1914,229.1680,8.018443,0.0434079,0.19663065,226.0688,08/09.0/2020,2000,g  7.5,4.0
# From MPC 75706
P/2005 SB216 (LONEOS),e,24.0667,1.2622,83.4012,7.125713,0.0518157,0.46310970,256.8352,08/09.0/2020,2000,g 12.0,2.0
# From MPC 55717
P/2005 T2 (Christensen),e,8.2927,260.1572,58.8059,3.846285,0.1306597,0.41648159,16.0241,08/09.0/2020,2000,g 14.5,4.0
# From MPC 73461
P/2005 T3 (Read),e,6.2255,27.7609,7.1448,7.574798,0.0472767,0.17371491,255.6024,08/09.0/2020,2000,g  9.0,4.0
# From MPC 73461
P/2005 T4 (SWAN),e,160.1656,25.6280,41.5321,9.360582,0.0344152,0.93000787,186.8460,08/09.0/2020,2000,g 15.0,4.0
# From MPC 75706
P/2005 T5 (Broughton),e,21.3486,57.0108,304.5051,7.292577,0.0500475,0.55181656,271.3673,08/09.0/2020,2000,g 11.0,4.0
# From MPC 56954
P/2005 W3 (Kowalski),e,16.4147,210.1042,200.6244,6.335491,0.0618064,0.54361811,334.8089,08/09.0/2020,2000,g 12.0,4.0
# From MPC 75706
P/2005 XA54 (LONEOS-Hill),e,17.1186,143.6716,15.1433,6.051702,0.0662045,0.71016432,348.5272,08/09.0/2020,2000,g 14.0,4.0
# From MPC 75706
P/2005 Y2 (McNaught),e,19.1051,94.5175,194.1093,6.373106,0.0612601,0.46952617,355.5164,08/09.0/2020,2000,g  9.0,4.0
# From MPC 56954
P/2006 F4 (Spacewatch),e,12.3920,183.9261,31.2308,3.529014,0.1486702,0.33911008,55.3296,08/09.0/2020,2000,g 15.0,4.0
# From MPC 58118
P/2006 H1 (McNaught),e,12.8050,359.8915,309.2850,5.771001,0.0710931,0.58017993,17.4515,08/09.0/2020,2000,g 12.5,4.0
# From MPC 75707
P/2006 HR30 (Siding Spring),e,31.8305,309.9008,117.2938,7.811286,0.0451461,0.84187722,225.1113,08/09.0/2020,2000,g 11.0,4.0
# From MPC 75707
P/2006 S4 (Christensen),e,39.5391,36.1002,305.1555,6.308903,0.0621976,0.50779254,327.4205,08/09.0/2020,2000,g 11.0,4.0
# From MPC 75707
P/2007 A2 (Christensen),e,26.4875,300.9057,186.7780,6.322772,0.0619930,0.55747420,307.7692,08/09.0/2020,2000,g 13.5,4.0
# From MPC 59319
P/2007 B1 (Christensen),e,12.3768,77.6671,46.7608,5.818403,0.0702261,0.58085292,348.0848,08/09.0/2020,2000,g 13.5,4.0
# From MPC 75707
P/2007 C2 (Catalina),e,8.6719,275.6839,179.7989,6.997169,0.0532501,0.46937209,250.3954,08/09.0/2020,2000,g 10.0,4.0
# From MPC 84315
C/2007 D1 (LINEAR),e,41.5011,171.1597,340.1476,1638,0.0000149,0.99460668,0.0000,06/10.4800/2007,2000,g  3.5,4.0
# From MPC 82314
P/2007 K2 (Gibbs),e,7.6390,188.6486,347.4854,7.261104,0.0503733,0.68352257,242.3606,08/09.0/2020,2000,g 14.0,4.0
# From MPC 60925
P/2007 Q2 (Gilmore),e,10.2009,172.1682,162.7790,5.658400,0.0732257,0.67047582,351.9458,08/09.0/2020,2000,g 16.0,4.0
# From MPC 75708
P/2007 R2 (Gibbs),e,1.2166,11.4295,352.3771,3.573188,0.1459219,0.54227252,354.4260,08/09.0/2020,2000,g 17.0,4.0
# From MPC 75708
P/2007 R4 (Garradd),e,20.2312,87.2208,282.7112,5.921003,0.0684087,0.66986495,326.6887,08/09.0/2020,2000,g 14.5,4.0
# From MPC 73462
P/2007 S1 (Zhao),e,5.9628,141.3885,245.7986,3.811349,0.1324604,0.33971605,255.2526,08/09.0/2020,2000,g 13.0,4.0
# From MPC 61994
P/2007 T2 (Kowalski),e,9.7427,3.3766,359.6345,3.047332,0.1852782,0.78513080,138.4719,08/09.0/2020,2000,g 18.5,4.0
# From MPEC 2020-N31
C/2007 U1 (LINEAR),e,157.7695,50.3747,1.0805,6543,0.0000019,0.99949434,0.0000,08/04.7072/2008,2000,g  9.0,4.0
# From MPC 75708
P/2007 VQ11 (Catalina),e,12.3200,163.8166,277.6785,5.425965,0.0779810,0.50325194,356.8777,08/09.0/2020,2000,g 12.0,4.0
# From MPEC 2020-N31
C/2007 VO53 (Spacewatch),e,86.9269,59.7221,75.1573,6394,0.0000019,0.99923867,0.0000,04/18.9731/2010,2000,g  7.0,4.0
# From MPC 75708
P/2008 CL94 (Lemmon),e,8.3480,33.3377,80.6027,6.159520,0.0644739,0.12012526,333.5723,08/09.0/2020,2000,g  8.0,4.0
# From MPC 75709
P/2008 L2 (Hill),e,25.8529,218.0042,141.2033,6.028801,0.0665821,0.61290179,293.0599,08/09.0/2020,2000,g 12.5,4.0
# From MPC 64114
P/2008 O3 (Boattini),e,32.2359,47.6057,341.0800,8.224408,0.0417876,0.69481503,186.4652,08/09.0/2020,2000,g 13.0,4.0
# From MPC 75709
P/2008 QP20 (LINEAR-Hill),e,7.5190,322.1007,75.7025,3.549697,0.1473728,0.49268069,284.6811,08/09.0/2020,2000,g 15.5,4.0
# From MPC 66204
P/2008 WZ96 (LINEAR),e,7.1178,56.5580,341.8036,3.491959,0.1510429,0.47094560,302.2260,08/09.0/2020,2000,g 13.5,4.0
# From MPC 75710
P/2008 Y3 (McNaught),e,38.7605,262.7837,238.3045,8.045436,0.0431897,0.44559324,183.2113,08/09.0/2020,2000,g  8.5,4.0
# From MPC 75710
P/2009 B1 (Boattini),e,22.2185,297.0926,128.9098,6.735111,0.0563880,0.63453489,238.4792,08/09.0/2020,2000,g 13.0,4.0
# From MPC 66466
C/2009 G1 (STEREO),e,108.7540,120.4291,175.3677,419.7767,0.0001146,0.99730010,0.0000,04/14.7655/2009,2000,g  9.0,4.0
# From MPEC 2020-N31
P/2009 O3 (Hill),e,16.2581,183.7253,154.3695,7.771447,0.0454937,0.68738233,186.5361,08/09.0/2020,2000,g 12.5,4.0
# From MPC 98557
P/2009 Q1 (Hill),e,14.5052,173.9578,157.1191,5.519929,0.0759983,0.49467545,310.3579,08/09.0/2020,2000,g 11.5,4.0
# From MPC112389
P/2009 Q4 (Boattini),e,11.0153,127.4653,320.2300,3.127855,0.1781698,0.58254888,335.0604,08/09.0/2020,2000,g 15.5,4.0
# From MPC 68902
P/2009 Q5 (McNaught),e,40.9669,160.2557,209.0166,7.439299,0.0485742,0.60842924,194.0453,08/09.0/2020,2000,g 10.0,4.0
# From MPC112389
P/2009 T2 (La Sagra),e,27.5357,215.7742,216.4435,7.725071,0.0459040,0.76491756,177.9845,08/09.0/2020,2000,g 14.0,4.0
# From MPC 75711
P/2009 U4 (McNaught),e,10.0817,55.3600,259.8512,5.081244,0.0860496,0.67597713,344.8438,08/09.0/2020,2000,g 14.0,4.0
# From MPC105235
P/2009 WX51 (Catalina),e,9.5954,31.6888,118.0640,3.079031,0.1824244,0.74018226,341.8739,08/09.0/2020,2000,g 19.0,2.0
# From MPC 74247
P/2009 Y2 (Kowalski),e,29.9279,262.0237,172.1881,6.548473,0.0588158,0.63578464,224.1314,08/09.0/2020,2000,g 13.0,4.0
# From MPC 75711
P/2010 A3 (Hill),e,14.8806,64.1920,41.8477,6.074820,0.0658270,0.73307063,249.5136,08/09.0/2020,2000,g 14.0,4.0
# From MPC 72851
P/2010 A5 (LINEAR),e,5.7983,277.6647,307.0891,5.083960,0.0859807,0.66509432,322.6448,08/09.0/2020,2000,g 13.0,4.0
# From MPC105235
P/2010 B2 (WISE),e,8.9305,0.8496,155.9223,3.109937,0.1797118,0.47990216,338.8704,08/09.0/2020,2000,g 17.0,4.0
# From MPC 75008
P/2010 C1 (Scotti),e,9.1282,141.8862,3.8348,7.102391,0.0520712,0.25856796,203.9376,08/09.0/2020,2000,g  9.5,4.0
# From MPC 75008
P/2010 D2 (WISE),e,57.0838,319.8928,120.1235,6.715177,0.0566393,0.45076437,216.6390,08/09.0/2020,2000,g 16.0,4.0
# From MPC 75009
P/2010 E2 (Jarnac),e,15.4116,177.8253,8.3743,8.637255,0.0388276,0.72046114,146.7309,08/09.0/2020,2000,g 14.0,4.0
# From MPC 72851
